NORAD_CAT_ID,OBJECT_NAME,OBJECT_TYPE,EPOCH,MEAN_MOTION,ECCENTRICITY,INCLINATION,RA_OF_ASC_NODE,ARG_OF_PERICENTER,MEAN_ANOMALY,BSTAR,MEAN_MOTION_DOT,MEAN_MOTION_DDOT,TLE_LINE0,TLE_LINE1,TLE_LINE2,SEMIMAJOR_AXIS,PERIOD,APOGEE,PERIGEE,DECAYED
55675.0,STARLINK-5232,PAYLOAD,2024-07-11 04:54:17,14.98332182,0.0003326,69.9986,253.4288,269.3098,90.768,5.7347e-06,-2.5e-07,0.0,0 STARLINK-5232,1 55675U 23021AZ  24193.20436933 -.00000025  00000-0  57347-5 0  9994,2 55675  69.9986 253.4288 0003326 269.3098  90.7680 14.98332182 78141,6950.186,96.107,574.363,569.74,0.0
55675.0,STARLINK-5232,PAYLOAD,2024-07-11 12:54:57,14.98334291,0.0003225,69.9991,252.588,267.8136,92.2654,2.638e-05,2.22e-06,0.0,0 STARLINK-5232,1 55675U 23021AZ  24193.53816682  .00000222  00000-0  26380-4 0  9993,2 55675  69.9991 252.5880 0003225 267.8136  92.2654 14.98334291 78498,6950.18,96.107,574.286,569.803,0.0
55675.0,STARLINK-5232,PAYLOAD,2024-07-11 20:55:37,14.98332458,0.0003219,69.9991,251.7463,267.9808,92.0982,1.8842e-05,1.32e-06,0.0,0 STARLINK-5232,1 55675U 23021AZ  24193.87196750  .00000132  00000-0  18842-4 0  9991,2 55675  69.9991 251.7463 0003219 267.9808  92.0982 14.98332458 78547,6950.185,96.107,574.288,569.813,0.0
55675.0,STARLINK-5232,PAYLOAD,2024-07-12 04:56:18,14.98329342,0.0003274,69.999,250.9046,269.2082,90.8702,7.2239e-05,7.69e-06,0.0,0 STARLINK-5232,1 55675U 23021AZ  24194.20576777  .00000769  00000-0  72239-4 0  9996,2 55675  69.9990 250.9046 0003274 269.2082  90.8702 14.98329342 78290,6950.195,96.107,574.335,569.784,0.0
55675.0,STARLINK-5232,PAYLOAD,2024-07-12 12:56:58,14.98330143,0.0003295,69.9989,250.0629,269.2969,90.7812,7.3791e-05,7.88e-06,0.0,0 STARLINK-5232,1 55675U 23021AZ  24194.53956751  .00000788  00000-0  73791-4 0  9991,2 55675  69.9989 250.0629 0003295 269.2969  90.7812 14.98330143 78644,6950.192,96.107,574.348,569.767,0.0
55675.0,STARLINK-5232,PAYLOAD,2024-07-12 20:57:39,14.98323577,0.0003297,69.9989,249.2213,270.6662,89.4119,-2.819e-05,-4.29e-06,0.0,0 STARLINK-5232,1 55675U 23021AZ  24194.87337473 -.00000429  00000-0 -28190-4 0  9999,2 55675  69.9989 249.2213 0003297 270.6662  89.4119 14.98323577 78391,6950.213,96.107,574.369,569.786,0.0
55675.0,STARLINK-5232,PAYLOAD,2024-07-13 12:59:00,14.9832226,0.0003283,69.9988,247.5383,270.6496,89.4287,-8.4424e-05,-1.1e-05,0.0,0 STARLINK-5232,1 55675U 23021AZ  24195.54097995 -.00001100  00000-0 -84424-4 0  9995,2 55675  69.9988 247.5383 0003283 270.6496  89.4287 14.98322260 78797,6950.217,96.107,574.364,569.8,0.0
55675.0,STARLINK-5232,PAYLOAD,2024-07-13 20:59:41,14.98318336,0.0003287,69.9987,246.6965,268.1968,91.8814,7.6254e-05,8.17e-06,0.0,0 STARLINK-5232,1 55675U 23021AZ  24195.87478022  .00000817  00000-0  76254-4 0  9999,2 55675  69.9987 246.6965 0003287 268.1968  91.8814 14.98318336 78547,6950.229,96.108,574.379,569.809,0.0
55675.0,STARLINK-5232,PAYLOAD,2024-07-14 05:00:20,14.98329612,0.0003479,69.9982,245.8542,271.9179,88.1582,5.4877e-05,5.62e-06,0.0,0 STARLINK-5232,1 55675U 23021AZ  24196.20857292  .00000562  00000-0  54877-4 0  9991,2 55675  69.9982 245.8542 0003479 271.9179  88.1582 14.98329612 78598,6950.194,96.107,574.477,569.641,0.0
55675.0,STARLINK-5232,PAYLOAD,2024-07-14 13:01:00,14.98334443,0.0003504,69.9982,245.0125,271.8487,88.2271,5.5512e-05,5.69e-06,0.0,0 STARLINK-5232,1 55675U 23021AZ  24196.54236974  .00000569  00000-0  55512-4 0  9990,2 55675  69.9982 245.0125 0003504 271.8487  88.2271 14.98334443 78940,6950.179,96.107,574.479,569.609,0.0
55675.0,STARLINK-5232,PAYLOAD,2024-07-14 21:01:41,14.98331029,0.0003469,69.9983,244.1704,271.9277,88.1484,8.7821e-05,9.55e-06,0.0,0 STARLINK-5232,1 55675U 23021AZ  24196.87617089  .00000955  00000-0  87821-4 0  9993,2 55675  69.9983 244.1704 0003469 271.9277  88.1484 14.98331029 78999,6950.19,96.107,574.466,569.644,0.0
55675.0,STARLINK-5232,PAYLOAD,2024-07-15 05:02:21,14.98327821,0.0003505,69.9982,243.3287,271.5609,88.5149,0.00016453,1.871e-05,0.0,0 STARLINK-5232,1 55675U 23021AZ  24197.20997132  .00001871  00000-0  16453-3 0  9991,2 55675  69.9982 243.3287 0003505 271.5609  88.5149 14.98327821 78741,6950.2,96.107,574.501,569.629,0.0
55675.0,STARLINK-5232,PAYLOAD,2024-07-15 13:03:01,14.9833293,0.000352,69.9982,242.4869,271.1023,88.9732,0.00017256,1.967e-05,0.0,0 STARLINK-5232,1 55675U 23021AZ  24197.54376828  .00001967  00000-0  17256-3 0  9999,2 55675  69.9982 242.4869 0003520 271.1023  88.9732 14.98332930 79098,6950.184,96.107,574.495,569.602,0.0
55675.0,STARLINK-5232,PAYLOAD,2024-07-16 05:04:22,14.98335568,0.0003464,69.9984,240.8034,271.123,88.9532,4.1514e-05,4.02e-06,0.0,0 STARLINK-5232,1 55675U 23021AZ  24198.21136821  .00000402  00000-0  41514-4 0  9999,2 55675  69.9984 240.8034 0003464 271.1230  88.9532 14.98335568 78898,6950.176,96.107,574.448,569.633,0.0
55675.0,STARLINK-5232,PAYLOAD,2024-07-16 13:05:02,14.9833954,0.000346,69.9984,239.9619,271.0421,89.0342,5.9526e-05,6.17e-06,0.0,0 STARLINK-5232,1 55675U 23021AZ  24198.54516362  .00000617  00000-0  59526-4 0  9997,2 55675  69.9984 239.9619 0003460 271.0421  89.0342 14.98339540 79248,6950.163,96.106,574.433,569.624,0.0
55675.0,STARLINK-5232,PAYLOAD,2024-07-17 05:06:23,14.98331828,0.0003416,69.9984,238.2786,270.6408,89.436,-3.661e-05,-5.3e-06,0.0,0 STARLINK-5232,1 55675U 23021AZ  24199.21276886 -.00000530  00000-0 -36610-4 0  9991,2 55675  69.9984 238.2786 0003416 270.6408  89.4360 14.98331828 79049,6950.187,96.107,574.426,569.678,0.0
55675.0,STARLINK-5232,PAYLOAD,2024-07-17 13:07:03,14.98334421,0.0003384,69.9984,237.4372,270.206,89.8711,-1.5461e-06,-1.12e-06,0.0,0 STARLINK-5232,1 55675U 23021AZ  24199.54656616 -.00000112  00000-0 -15461-5 0  9998,2 55675  69.9984 237.4372 0003384 270.2060  89.8711 14.98334421 79399,6950.179,96.107,574.396,569.692,0.0
55675.0,STARLINK-5232,PAYLOAD,2024-07-18 05:08:23,14.98333042,0.0003286,69.9986,235.7549,265.2758,94.8026,-1.4098e-05,-2.61e-06,0.0,0 STARLINK-5232,1 55675U 23021AZ  24200.21416588 -.00000261  00000-0 -14098-4 0  9996,2 55675  69.9986 235.7549 0003286 265.2758  94.8026 14.98333042 79198,6950.183,96.107,574.332,569.765,0.0
55675.0,STARLINK-5232,PAYLOAD,2024-07-18 11:32:56,14.98332795,0.0003316,69.9985,235.0809,268.572,91.5059,-1.4535e-05,-2.67e-06,0.0,0 STARLINK-5232,1 55675U 23021AZ  24200.48120586 -.00000267  00000-0 -14535-4 0  9997,2 55675  69.9985 235.0809 0003316 268.5720  91.5059 14.98332795 79530,6950.184,96.107,574.354,569.745,0.0
55675.0,STARLINK-5232,PAYLOAD,2024-07-19 05:10:24,14.98330202,0.0003383,69.9982,233.2291,268.8971,91.18,4.8398e-05,4.84e-06,0.0,0 STARLINK-5232,1 55675U 23021AZ  24201.21556518  .00000484  00000-0  48398-4 0  9990,2 55675  69.9982 233.2291 0003383 268.8971  91.1800 14.98330202 79347,6950.192,96.107,574.409,569.706,0.0
55675.0,STARLINK-5232,PAYLOAD,2024-07-19 11:34:57,14.98329376,0.0003305,69.9986,232.5559,267.4377,92.6404,3.9044e-05,3.73e-06,0.0,0 STARLINK-5232,1 55675U 23021AZ  24201.48260555  .00000373  00000-0  39044-4 0  9997,2 55675  69.9986 232.5559 0003305 267.4377  92.6404 14.98329376 79682,6950.195,96.107,574.357,569.763,0.0
55675.0,STARLINK-5232,PAYLOAD,2024-07-19 19:35:37,14.98330755,0.0003381,69.9984,231.714,265.7715,94.3058,3.9553e-05,3.79e-06,0.0,0 STARLINK-5232,1 55675U 23021AZ  24201.81640422  .00000379  00000-0  39553-4 0  9990,2 55675  69.9984 231.7140 0003381 265.7715  94.3058 14.98330755 79731,6950.191,96.107,574.405,569.706,0.0
55675.0,STARLINK-5232,PAYLOAD,2024-07-20 05:12:25,14.98330751,0.0003511,69.9981,230.7036,268.6931,91.3826,3.0889e-05,2.75e-06,0.0,0 STARLINK-5232,1 55675U 23021AZ  24202.21696422  .00000275  00000-0  30889-4 0  9994,2 55675  69.9981 230.7036 0003511 268.6931  91.3826 14.98330751 79497,6950.191,96.107,574.496,569.615,0.0
55675.0,STARLINK-5232,PAYLOAD,2024-07-20 11:36:57,14.98333107,0.0003507,69.9981,230.0302,268.4863,91.5894,5.517e-05,5.65e-06,0.0,0 STARLINK-5232,1 55675U 23021AZ  24202.48400199  .00000565  00000-0  55170-4 0  9999,2 55675  69.9981 230.0302 0003507 268.4863  91.5894 14.98333107 79836,6950.183,96.107,574.486,569.611,0.0
55675.0,STARLINK-5232,PAYLOAD,2024-07-20 19:37:38,14.98330854,0.0003522,69.9981,229.1883,268.3956,91.68,3.0989e-05,2.77e-06,0.0,0 STARLINK-5232,1 55675U 23021AZ  24202.81780347  .00000277  00000-0  30989-4 0  9993,2 55675  69.9981 229.1883 0003522 268.3956  91.6800 14.98330854 79887,6950.19,96.107,574.503,569.607,0.0
55675.0,STARLINK-5232,PAYLOAD,2024-07-21 05:14:26,14.98331594,0.0003516,69.9981,228.1783,268.0713,92.0043,3.0544e-05,2.71e-06,0.0,0 STARLINK-5232,1 55675U 23021AZ  24203.21836260  .00000271  00000-0  30544-4 0  9995,2 55675  69.9981 228.1783 0003516 268.0713  92.0043 14.98331594 79646,6950.188,96.107,574.497,569.609,0.0
55675.0,STARLINK-5232,PAYLOAD,2024-07-21 11:38:58,14.98332384,0.0003527,69.9983,227.505,268.1669,91.9086,3.6648e-05,3.44e-06,0.0,0 STARLINK-5232,1 55675U 23021AZ  24203.48540191  .00000344  00000-0  36648-4 0  9991,2 55675  69.9983 227.5050 0003527 268.1669  91.9086 14.98332384 79981,6950.186,96.107,574.502,569.599,0.0
55675.0,STARLINK-5232,PAYLOAD,2024-07-22 05:16:27,14.98330508,0.0003455,69.9986,225.6531,267.7037,92.3726,1.3682e-05,7e-07,0.0,0 STARLINK-5232,1 55675U 23021AZ  24204.21976325  .00000070  00000-0  13682-4 0  9994,2 55675  69.9986 225.6531 0003455 267.7037  92.3726 14.98330508 79792,6950.191,96.107,574.458,569.655,0.0
55675.0,STARLINK-5232,PAYLOAD,2024-07-22 11:40:59,14.98331208,0.0003488,69.9988,224.98,268.1943,91.8817,2.8763e-06,-5.9e-07,0.0,0 STARLINK-5232,1 55675U 23021AZ  24204.48680314 -.00000059  00000-0  28763-5 0  9998,2 55675  69.9988 224.9800 0003488 268.1943  91.8817 14.98331208 80135,6950.189,96.107,574.478,569.63,0.0
55675.0,STARLINK-5232,PAYLOAD,2024-07-23 10:06:52,14.98330998,0.0003439,69.9993,222.6242,267.6525,92.424,4.2856e-05,4.18e-06,0.0,0 STARLINK-5232,1 55675U 23021AZ  24205.42144215  .00000418  00000-0  42856-4 0  9994,2 55675  69.9993 222.6242 0003439 267.6525  92.4240 14.98330998 79974,6950.19,96.107,574.445,569.665,0.0
